ONEWEB-0205             
1 48226U 21031S   24359.38655240 -.00000119  00000+0 -35434-3 0  9999
2 48226  87.8998  37.0357 0001900 101.7018 258.4325 13.14504023177362
ONEWEB-0206             
1 48227U 21031T   24359.35959544 -.00000028  00000+0 -10930-3 0  9994
2 48227  87.8998  37.0259 0002082 101.6809 258.4554 13.14503187177312
ONEWEB-0182             
1 48228U 21031U   24359.35483629  .00000022  00000+0  23848-4 0  9996
2 48228  87.9002  37.0625 0001875  92.8151 267.3193 13.14503761177526
ONEWEB-0186             
1 48229U 21031V   24359.36592731  .00000885  00000+0  23535-2 0  9991
2 48229  87.8998  37.0219 0001843 102.5875 257.5460 13.14500288177479
ONEWEB-0181             
1 48230U 21031W   24359.34372518  .00000232  00000+0  59094-3 0  9996
2 48230  87.9003  37.0977 0001784 104.8913 255.2415 13.14504246177329
ONEWEB-0188             
1 48231U 21031X   24359.07732113 -.00001786  00000+0 -48515-2 0  9990
2 48231  87.9001  37.1444 0002015  91.5342 268.6018 13.14512336177184
ONEWEB-0220             
1 48232U 21031Y   24359.34530482  .00000189  00000+0  47494-3 0  9996
2 48232  87.8996  37.0443 0002101 104.8250 255.3113 13.14505115177486
ONEWEB-0165             
1 48233U 21031Z   24359.37385540 -.00000156  00000+0 -45612-3 0  9999
2 48233  87.9002  37.0678 0001874 104.0558 256.0780 13.14504588177442
